{
  "type": "FeatureCollection",
  "features": [
    {
      "type": "Feature",
      "properties": {
        "norad_id": 41877,
        "name": "RESOURCESAT-2A",
        "group": "resource",
        "lat": -80.0580693950758,
        "lon": 178.9390489419277,
        "alt_km": 826.4954014327295,
        "timestamp": "2025-12-16T21:38:56.827217+00:00",
        "meta_object_name": "RESOURCESAT-2A",
        "meta_object_id": "2016-074A",
        "meta_epoch": "2025-12-16T08:34:49.588032",
        "meta_mean_motion": 14.21600448,
        "meta_eccentricity": 0.00012375,
        "meta_inclination": 98.7755,
        "meta_ra_of_asc_node": 60.1923,
        "meta_arg_of_pericenter": 237.1912,
        "meta_mean_anomaly": 122.9146,
        "meta_ephemeris_type": 0,
        "meta_classification_type": "U",
        "meta_norad_cat_id": 41877,
        "meta_element_set_no": 999,
        "meta_rev_at_epoch": 46832,
        "meta_bstar": -3.9178733e-05,
        "meta_mean_motion_dot": -1.3e-06,
        "meta_mean_motion_ddot": 0,
        "tle_line1": "1 41877U 16074A   25350.35751838 -.00000130  00000+0 -39179-4 0  9998",
        "tle_line2": "2 41877  98.7755  60.1923 0001237 237.1912 122.9146 14.21600448468327"
      },
      "geometry": {
        "type": "Point",
        "coordinates": [
          178.9390489419277,
          -80.0580693950758
        ]
      }
    },
    {
      "type": "Feature",
      "properties": {
        "norad_id": 41948,
        "name": "CARTOSAT-2D",
        "group": "resource",
        "lat": -66.0780705791476,
        "lon": 65.46690954000286,
        "alt_km": 517.9585256696164,
        "timestamp": "2025-12-16T21:38:56.827228+00:00",
        "meta_object_name": "CARTOSAT-2D",
        "meta_object_id": "2017-008A",
        "meta_epoch": "2025-12-16T07:43:06.934656",
        "meta_mean_motion": 15.19295425,
        "meta_eccentricity": 0.00049914,
        "meta_inclination": 97.4388,
        "meta_ra_of_asc_node": 47.7653,
        "meta_arg_of_pericenter": 151.9807,
        "meta_mean_anomaly": 208.1697,
        "meta_ephemeris_type": 0,
        "meta_classification_type": "U",
        "meta_norad_cat_id": 41948,
        "meta_element_set_no": 999,
        "meta_rev_at_epoch": 48981,
        "meta_bstar": 0.0001853846,
        "meta_mean_motion_dot": 3.845e-05,
        "meta_mean_motion_ddot": 0,
        "tle_line1": "1 41948U 17008A   25350.32160804  .00003845  00000+0  18538-3 0  9998",
        "tle_line2": "2 41948  97.4388  47.7653 0004991 151.9807 208.1697 15.19295425489819"
      },
      "geometry": {
        "type": "Point",
        "coordinates": [
          65.46690954000286,
          -66.0780705791476
        ]
      }
    },
    {
      "type": "Feature",
      "properties": {
        "norad_id": 42063,
        "name": "SENTINEL-2B",
        "group": "resource",
        "lat": 11.467187040701672,
        "lon": 61.53607367365828,
        "alt_km": 790.1783507276587,
        "timestamp": "2025-12-16T21:38:56.827237+00:00",
        "meta_object_name": "SENTINEL-2B",
        "meta_object_id": "2017-013A",
        "meta_epoch": "2025-12-16T08:10:06.572640",
        "meta_mean_motion": 14.30817358,
        "meta_eccentricity": 0.00011502,
        "meta_inclination": 98.5714,
        "meta_ra_of_asc_node": 62.7356,
        "meta_arg_of_pericenter": 93.1335,
        "meta_mean_anomaly": 266.9979,
        "meta_ephemeris_type": 0,
        "meta_classification_type": "U",
        "meta_norad_cat_id": 42063,
        "meta_element_set_no": 999,
        "meta_rev_at_epoch": 45849,
        "meta_bstar": 2.8641791e-05,
        "meta_mean_motion_dot": 3.1e-07,
        "meta_mean_motion_ddot": 0,
        "tle_line1": "1 42063U 17013A   25350.34035385  .00000031  00000+0  28642-4 0  9992",
        "tle_line2": "2 42063  98.5714  62.7356 0001150  93.1335 266.9979 14.30817358458499"
      },
      "geometry": {
        "type": "Point",
        "coordinates": [
          61.53607367365828,
          11.467187040701672
        ]
      }
    },
    {
      "type": "Feature",
      "properties": {
        "norad_id": 42767,
        "name": "CARTOSAT-2E",
        "group": "resource",
        "lat": -22.658583585360738,
        "lon": -134.69935932998567,
        "alt_km": 512.2263683975452,
        "timestamp": "2025-12-16T21:38:56.827248+00:00",
        "meta_object_name": "CARTOSAT-2E",
        "meta_object_id": "2017-036C",
        "meta_epoch": "2025-12-16T08:06:48.062592",
        "meta_mean_motion": 15.19236639,
        "meta_eccentricity": 0.00021102,
        "meta_inclination": 97.4558,
        "meta_ra_of_asc_node": 47.8779,
        "meta_arg_of_pericenter": 219.9345,
        "meta_mean_anomaly": 140.1735,
        "meta_ephemeris_type": 0,
        "meta_classification_type": "U",
        "meta_norad_cat_id": 42767,
        "meta_element_set_no": 999,
        "meta_rev_at_epoch": 47038,
        "meta_bstar": 0.00019573771,
        "meta_mean_motion_dot": 4.056e-05,
        "meta_mean_motion_ddot": 0,
        "tle_line1": "1 42767U 17036C   25350.33805628  .00004056  00000+0  19574-3 0  9996",
        "tle_line2": "2 42767  97.4558  47.8779 0002110 219.9345 140.1735 15.19236639470383"
      },
      "geometry": {
        "type": "Point",
        "coordinates": [
          -134.69935932998567,
          -22.658583585360738
        ]
      }
    },
    {
      "type": "Feature",
      "properties": {
        "norad_id": 42920,
        "name": "FORMOSAT-5",
        "group": "resource",
        "lat": -43.63640955841164,
        "lon": 73.08550524695417,
        "alt_km": 723.2832804106401,
        "timestamp": "2025-12-16T21:38:56.827259+00:00",
        "meta_object_name": "FORMOSAT-5",
        "meta_object_id": "2017-049A",
        "meta_epoch": "2025-12-16T06:57:26.355168",
        "meta_mean_motion": 14.51007561,
        "meta_eccentricity": 0.00097961,
        "meta_inclination": 98.2451,
        "meta_ra_of_asc_node": 64.5385,
        "meta_arg_of_pericenter": 283.2761,
        "meta_mean_anomaly": 76.7341,
        "meta_ephemeris_type": 0,
        "meta_classification_type": "U",
        "meta_norad_cat_id": 42920,
        "meta_element_set_no": 999,
        "meta_rev_at_epoch": 44015,
        "meta_bstar": 6.1894334e-05,
        "meta_mean_motion_dot": 2.01e-06,
        "meta_mean_motion_ddot": 0,
        "tle_line1": "1 42920U 17049A   25350.28988837  .00000201  00000+0  61894-4 0  9990",
        "tle_line2": "2 42920  98.2451  64.5385 0009796 283.2761  76.7341 14.51007561440151"
      },
      "geometry": {
        "type": "Point",
        "coordinates": [
          73.08550524695417,
          -43.63640955841164
        ]
      }
    },
    {
      "type": "Feature",
      "properties": {
        "norad_id": 42969,
        "name": "SENTINEL-5P",
        "group": "resource",
        "lat": -59.2184188612888,
        "lon": 94.4140325322601,
        "alt_km": 834.7139153958751,
        "timestamp": "2025-12-16T21:38:56.827269+00:00",
        "meta_object_name": "SENTINEL-5P",
        "meta_object_id": "2017-064A",
        "meta_epoch": "2025-12-16T06:59:13.796160",
        "meta_mean_motion": 14.19518482,
        "meta_eccentricity": 0.00010009,
        "meta_inclination": 98.7788,
        "meta_ra_of_asc_node": 288.8438,
        "meta_arg_of_pericenter": 88.8545,
        "meta_mean_anomaly": 271.2745,
        "meta_ephemeris_type": 0,
        "meta_classification_type": "U",
        "meta_norad_cat_id": 42969,
        "meta_element_set_no": 999,
        "meta_rev_at_epoch": 42361,
        "meta_bstar": 5.5819381e-05,
        "meta_mean_motion_dot": 7.3e-07,
        "meta_mean_motion_ddot": 0,
        "tle_line1": "1 42969U 17064A   25350.29113190  .00000073  00000+0  55819-4 0  9990",
        "tle_line2": "2 42969  98.7788 288.8438 0001000  88.8545 271.2745 14.19518482423616"
      },
      "geometry": {
        "type": "Point",
        "coordinates": [
          94.4140325322601,
          -59.2184188612888
        ]
      }
    },
    {
      "type": "Feature",
      "properties": {
        "norad_id": 42987,
        "name": "SKYSAT-C11",
        "group": "resource",
        "lat": 69.54701543382822,
        "lon": -31.06877019012535,
        "alt_km": 416.19927502457085,
        "timestamp": "2025-12-16T21:38:56.827279+00:00",
        "meta_object_name": "SKYSAT-C11",
        "meta_object_id": "2017-068A",
        "meta_epoch": "2025-12-16T08:45:54.737568",
        "meta_mean_motion": 15.47602133,
        "meta_eccentricity": 0.00011417,
        "meta_inclination": 97.4136,
        "meta_ra_of_asc_node": 127.9464,
        "meta_arg_of_pericenter": 101.6922,
        "meta_mean_anomaly": 258.4457,
        "meta_ephemeris_type": 0,
        "meta_classification_type": "U",
        "meta_norad_cat_id": 42987,
        "meta_element_set_no": 999,
        "meta_rev_at_epoch": 45487,
        "meta_bstar": 0.00034245771,
        "meta_mean_motion_dot": 0.00017574,
        "meta_mean_motion_ddot": 0,
        "tle_line1": "1 42987U 17068A   25350.36521687  .00017574  00000+0  34246-3 0  9990",
        "tle_line2": "2 42987  97.4136 127.9464 0001141 101.6922 258.4457 15.47602133454878"
      },
      "geometry": {
        "type": "Point",
        "coordinates": [
          -31.06877019012535,
          69.54701543382822
        ]
      }
    }
  ]
}